{"type": "FeatureCollection", "features": [{"type": "Feature", "properties": {"NAME": "Roman Empire", "NAME_EN": "Roman Empire", "NAME_RU": "Римская империя"}, "geometry": {"type": "MultiPolygon", "coordinates": [[[[-51.657797, 4.156232], [-52.249338, 3.241094], [-52.556425, 2.504705], [-52.939657, 2.124858], [-53.418465, 2.053389], [-53.554839, 2.334897], [-53.778521, 2.376703], [-54.088063, 2.105557], [-54.524754, 2.311849], [-54.269705, 2.732392], [-54.181726, 3.18978], [-54.006931, 3.620038], [-54.399542, 4.212611], [-54.478633, 4.896756], [-53.958045, 5.756548], [-53.618453, 5.646529], [-52.882141, 5.409851], [-51.823343, 4.565768], [-51.657797, 4.156232]]], [[[6.18632, 49.463803], [6.65823, 49.201958], [8.099279, 49.017784], [7.593676, 48.333019], [7.466759, 47.620582], [7.192202, 47.449766], [6.736571, 47.541801], [6.768714, 47.287708], [6.037389, 46.725779], [6.022609, 46.27299], [6.5001, 46.429673], [6.843593, 45.991147], [6.802355, 45.70858], [7.096652, 45.333099], [6.749955, 45.028518], [7.007562, 44.254767], [7.549596, 44.127901], [7.435185, 43.693845], [6.529245, 43.128892], [4.556963, 43.399651], [3.100411, 43.075201], [2.985999, 42.473015], [1.826793, 42.343385], [0.701591, 42.795734], [0.338047, 42.579546], [-1.502771, 43.034014], [-1.901351, 43.422802], [-1.384225, 44.02261], [-1.193798, 46.014918], [-2.225724, 47.064363], [-2.963276, 47.570327], [-4.491555, 47.954954], [-4.59235, 48.68416], [-3.295814, 48.901692], [-1.616511, 48.644421], [-1.933494, 49.776342], [-0.989469, 49.347376], [1.338761, 50.127173], [1.639001, 50.946606], [2.513573, 51.148506], [2.658422, 50.796848], [3.123252, 50.780363], [3.588184, 50.378992], [4.286023, 49.907497], [4.799222, 49.985373], [5.674052, 49.529484], [5.897759, 49.442667], [6.18632, 49.463803]]], [[[8.746009, 42.628122], [9.390001, 43.009985], [9.560016, 42.152492], [9.229752, 41.380007], [8.775723, 41.583612], [8.544213, 42.256517], [8.746009, 42.628122]]]]}}, {"type": "Feature", "properties": {"NAME": "Judea", "NAME_EN": "Judea", "NAME_RU": "Иудея"}, "geometry": {"type": "Polygon", "coordinates": [[[35.719918, 32.709192], [35.545665, 32.393992], [35.18393, 32.532511], [34.974641, 31.866582], [35.225892, 31.754341], [34.970507, 31.616778], [34.927408, 31.353435], [35.397561, 31.489086], [35.420918, 31.100066], [34.922603, 29.501326], [34.823243, 29.761081], [34.26544, 31.21936], [34.265435, 31.219357], [34.265433, 31.219361], [34.556372, 31.548824], [34.488107, 31.605539], [34.752587, 32.072926], [34.955417, 32.827376], [35.098457, 33.080539], [35.126053, 33.0909], [35.460709, 33.08904], [35.552797, 33.264275], [35.821101, 33.277426], [35.836397, 32.868123], [35.700798, 32.716014], [35.719918, 32.709192]]]}}, {"type": "Feature", "properties": {"NAME": "Phoenicia", "NAME_EN": "Phoenicia", "NAME_RU": "Финикия"}, "geometry": {"type": "Polygon", "coordinates": [[[35.821101, 33.277426], [35.552797, 33.264275], [35.460709, 33.08904], [35.126053, 33.0909], [35.482207, 33.90545], [35.979592, 34.610058], [35.998403, 34.644914], [36.448194, 34.593935], [36.61175, 34.201789], [36.06646, 33.824912], [35.821101, 33.277426]]]}}, {"type": "Feature", "properties": {"NAME": "Judea", "NAME_EN": "Judea", "NAME_RU": "Иудея"}, "geometry": {"type": "Polygon", "coordinates": [[[35.397561, 31.489086], [34.927408, 31.353435], [34.970507, 31.616778], [35.225892, 31.754341], [34.974641, 31.866582], [35.18393, 32.532511], [35.545665, 32.393992], [35.545252, 31.782505], [35.397561, 31.489086]]]}}, {"type": "Feature", "properties": {"NAME": "Carthage", "NAME_EN": "Carthage", "NAME_RU": "Карфаген"}, "geometry": {"type": "Polygon", "coordinates": [[[9.48214, 30.307556], [9.055603, 32.102692], [8.439103, 32.506285], [8.430473, 32.748337], [7.612642, 33.344115], [7.524482, 34.097376], [8.140981, 34.655146], [8.376368, 35.479876], [8.217824, 36.433177], [8.420964, 36.946427], [9.509994, 37.349994], [10.210002, 37.230002], [10.18065, 36.724038], [11.028867, 37.092103], [11.100026, 36.899996], [10.600005, 36.41], [10.593287, 35.947444], [10.939519, 35.698984], [10.807847, 34.833507], [10.149593, 34.330773], [10.339659, 33.785742], [10.856836, 33.76874], [11.108501, 33.293343], [11.488787, 33.136996], [11.432253, 32.368903], [10.94479, 32.081815], [10.636901, 31.761421], [9.950225, 31.37607], [10.056575, 30.961831], [9.970017, 30.539325], [9.48214, 30.307556]]]}}, {"type": "Feature", "properties": {"NAME": "Numidia", "NAME_EN": "Numidia", "NAME_RU": "Нумидия"}, "geometry": {"type": "Polygon", "coordinates": [[[-8.6844, 27.395744], [-8.665124, 27.589479], [-8.66559, 27.656426], [-8.674116, 28.841289], [-7.059228, 29.579228], [-6.060632, 29.7317], [-5.242129, 30.000443], [-4.859646, 30.501188], [-3.690441, 30.896952], [-3.647498, 31.637294], [-3.06898, 31.724498], [-2.616605, 32.094346], [-1.307899, 32.262889], [-1.124551, 32.651522], [-1.388049, 32.864015], [-1.733455, 33.919713], [-1.792986, 34.527919], [-2.169914, 35.168396], [-1.208603, 35.714849], [-0.127454, 35.888662], [0.503877, 36.301273], [1.466919, 36.605647], [3.161699, 36.783905], [4.815758, 36.865037], [5.32012, 36.716519], [6.26182, 37.110655], [7.330385, 37.118381], [7.737078, 36.885708], [8.420964, 36.946427], [8.217824, 36.433177], [8.376368, 35.479876], [8.140981, 34.655146], [7.524482, 34.097376], [7.612642, 33.344115], [8.430473, 32.748337], [8.439103, 32.506285], [9.055603, 32.102692], [9.48214, 30.307556], [9.805634, 29.424638], [9.859998, 28.95999], [9.683885, 28.144174], [9.756128, 27.688259], [9.629056, 27.140953], [9.716286, 26.512206], [9.319411, 26.094325], [9.910693, 25.365455], [9.948261, 24.936954], [10.303847, 24.379313], [10.771364, 24.562532], [11.560669, 24.097909], [11.999506, 23.471668], [8.572893, 21.565661], [5.677566, 19.601207], [4.267419, 19.155265], [3.158133, 19.057364], [3.146661, 19.693579], [2.683588, 19.85623], [2.060991, 20.142233], [1.823228, 20.610809], [-1.550055, 22.792666], [-4.923337, 24.974574], [-8.6844, 27.395744]]]}}, {"type": "Feature", "properties": {"NAME": "Nabataea", "NAME_EN": "Nabataea", "NAME_RU": "Набатея"}, "geometry": {"type": "Polygon", "coordinates": [[[35.545665, 32.393992], [35.719918, 32.709192], [36.834062, 32.312938], [38.792341, 33.378686], [39.195468, 32.161009], [39.004886, 32.010217], [37.002166, 31.508413], [37.998849, 30.5085], [37.66812, 30.338665], [37.503582, 30.003776], [36.740528, 29.865283], [36.501214, 29.505254], [36.068941, 29.197495], [34.956037, 29.356555], [34.922603, 29.501326], [35.420918, 31.100066], [35.397561, 31.489086], [35.545252, 31.782505], [35.545665, 32.393992]]]}}, {"type": "Feature", "properties": {"NAME": "Mesopotamia", "NAME_EN": "Mesopotamia", "NAME_RU": "Месопотамия"}, "geometry": {"type": "Polygon", "coordinates": [[[39.195468, 32.161009], [38.792341, 33.378686], [41.006159, 34.419372], [41.383965, 35.628317], [41.289707, 36.358815], [41.837064, 36.605854], [42.349591, 37.229873], [42.779126, 37.385264], [43.942259, 37.256228], [44.293452, 37.001514], [44.772677, 37.170437], [45.420618, 35.977546], [46.07634, 35.677383], [46.151788, 35.093259], [45.64846, 34.748138], [45.416691, 33.967798], [46.109362, 33.017287], [47.334661, 32.469155], [47.849204, 31.709176], [47.685286, 30.984853], [48.004698, 30.985137], [48.014568, 30.452457], [48.567971, 29.926778], [47.974519, 29.975819], [47.302622, 30.05907], [46.568713, 29.099025], [44.709499, 29.178891], [41.889981, 31.190009], [40.399994, 31.889992], [39.195468, 32.161009]]]}}, {"type": "Feature", "properties": {"NAME": "Syria", "NAME_EN": "Syria", "NAME_RU": "Сирия"}, "geometry": {"type": "Polygon", "coordinates": [[[35.719918, 32.709192], [35.700798, 32.716014], [35.836397, 32.868123], [35.821101, 33.277426], [36.06646, 33.824912], [36.61175, 34.201789], [36.448194, 34.593935], [35.998403, 34.644914], [35.905023, 35.410009], [36.149763, 35.821535], [36.41755, 36.040617], [36.685389, 36.259699], [36.739494, 36.81752], [37.066761, 36.623036], [38.167727, 36.90121], [38.699891, 36.712927], [39.52258, 36.716054], [40.673259, 37.091276], [41.212089, 37.074352], [42.349591, 37.229873], [41.837064, 36.605854], [41.289707, 36.358815], [41.383965, 35.628317], [41.006159, 34.419372], [38.792341, 33.378686], [36.834062, 32.312938], [35.719918, 32.709192]]]}}, {"type": "Feature", "properties": {"NAME": "Ottoman Empire", "NAME_EN": "Ottoman Empire", "NAME_RU": "Османская империя"}, "geometry": {"type": "Polygon", "coordinates": [[[22.65715, 44.234923], [22.944832, 43.823785], [23.332302, 43.897011], [24.100679, 43.741051], [25.569272, 43.688445], [26.065159, 43.943494], [27.2424, 44.175986], [27.970107, 43.812468], [28.558081, 43.707462], [28.039095, 43.293172], [27.673898, 42.577892], [27.99672, 42.007359], [27.135739, 42.141485], [26.117042, 41.826905], [26.106138, 41.328899], [25.197201, 41.234486], [24.492645, 41.583896], [23.692074, 41.309081], [22.952377, 41.337994], [22.881374, 41.999297], [22.380526, 42.32026], [22.545012, 42.461362], [22.436595, 42.580321], [22.604801, 42.898519], [22.986019, 43.211161], [22.500157, 43.642814], [22.410446, 44.008063], [22.65715, 44.234923]]]}}, {"type": "Feature", "properties": {"NAME": "Ancient Greece", "NAME_EN": "Ancient Greece", "NAME_RU": "Древняя Греция"}, "geometry": {"type": "MultiPolygon", "coordinates": [[[[26.290003, 35.29999], [26.164998, 35.004995], [24.724982, 34.919988], [24.735007, 35.084991], [23.514978, 35.279992], [23.69998, 35.705004], [24.246665, 35.368022], [25.025015, 35.424996], [25.769208, 35.354018], [25.745023, 35.179998], [26.290003, 35.29999]]], [[[22.952377, 41.337994], [23.692074, 41.309081], [24.492645, 41.583896], [25.197201, 41.234486], [26.106138, 41.328899], [26.117042, 41.826905], [26.604196, 41.562115], [26.294602, 40.936261], [26.056942, 40.824123], [25.447677, 40.852545], [24.925848, 40.947062], [23.714811, 40.687129], [24.407999, 40.124993], [23.899968, 39.962006], [23.342999, 39.960998], [22.813988, 40.476005], [22.626299, 40.256561], [22.849748, 39.659311], [23.350027, 39.190011], [22.973099, 38.970903], [23.530016, 38.510001], [24.025025, 38.219993], [24.040011, 37.655015], [23.115003, 37.920011], [23.409972, 37.409991], [22.774972, 37.30501], [23.154225, 36.422506], [22.490028, 36.41], [21.670026, 36.844986], [21.295011, 37.644989], [21.120034, 38.310323], [20.730032, 38.769985], [20.217712, 39.340235], [20.150016, 39.624998], [20.615, 40.110007], [20.674997, 40.435], [20.99999, 40.580004], [21.02004, 40.842727], [21.674161, 40.931275], [22.055378, 41.149866], [22.597308, 41.130487], [22.76177, 41.3048], [22.952377, 41.337994]]]]}}, {"type": "Feature", "properties": {"NAME": "Ottoman Empire", "NAME_EN": "Ottoman Empire", "NAME_RU": "Османская империя"}, "geometry": {"type": "MultiPolygon", "coordinates": [[[[44.772677, 37.170437], [44.293452, 37.001514], [43.942259, 37.256228], [42.779126, 37.385264], [42.349591, 37.229873], [41.212089, 37.074352], [40.673259, 37.091276], [39.52258, 36.716054], [38.699891, 36.712927], [38.167727, 36.90121], [37.066761, 36.623036], [36.739494, 36.81752], [36.685389, 36.259699], [36.41755, 36.040617], [36.149763, 35.821535], [35.782085, 36.274995], [36.160822, 36.650606], [35.550936, 36.565443], [34.714553, 36.795532], [34.026895, 36.21996], [32.509158, 36.107564], [31.699595, 36.644275], [30.621625, 36.677865], [30.391096, 36.262981], [29.699976, 36.144357], [28.732903, 36.676831], [27.641187, 36.658822], [27.048768, 37.653361], [26.318218, 38.208133], [26.8047, 38.98576], [26.170785, 39.463612], [27.28002, 40.420014], [28.819978, 40.460011], [29.240004, 41.219991], [31.145934, 41.087622], [32.347979, 41.736264], [33.513283, 42.01896], [35.167704, 42.040225], [36.913127, 41.335358], [38.347665, 40.948586], [39.512607, 41.102763], [40.373433, 41.013673], [41.554084, 41.535656], [42.619549, 41.583173], [43.582746, 41.092143], [43.752658, 40.740201], [43.656436, 40.253564], [44.400009, 40.005], [44.79399, 39.713003], [44.109225, 39.428136], [44.421403, 38.281281], [44.225756, 37.971584], [44.77267, 37.17045], [44.772677, 37.170437]]], [[[26.117042, 41.826905], [27.135739, 42.141485], [27.99672, 42.007359], [28.115525, 41.622886], [28.988443, 41.299934], [28.806438, 41.054962], [27.619017, 40.999823], [27.192377, 40.690566], [26.358009, 40.151994], [26.043351, 40.617754], [26.056942, 40.824123], [26.294602, 40.936261], [26.604196, 41.562115], [26.117042, 41.826905]]]]}}, {"type": "Feature", "properties": {"NAME": "Ottoman Empire", "NAME_EN": "Ottoman Empire", "NAME_RU": "Османская империя"}, "geometry": {"type": "Polygon", "coordinates": [[[21.02004, 40.842727], [20.99999, 40.580004], [20.674997, 40.435], [20.615, 40.110007], [20.150016, 39.624998], [19.98, 39.694993], [19.960002, 39.915006], [19.406082, 40.250773], [19.319059, 40.72723], [19.40355, 41.409566], [19.540027, 41.719986], [19.371769, 41.877548], [19.371768, 41.877551], [19.304486, 42.195745], [19.738051, 42.688247], [19.801613, 42.500093], [20.0707, 42.58863], [20.283755, 42.32026], [20.52295, 42.21787], [20.590247, 41.855409], [20.590247, 41.855404], [20.463175, 41.515089], [20.605182, 41.086226], [21.02004, 40.842727]]]}}, {"type": "Feature", "properties": {"NAME": "Roman Empire", "NAME_EN": "Roman Empire", "NAME_RU": "Римская империя"}, "geometry": {"type": "Polygon", "coordinates": [[[16.564808, 46.503751], [16.882515, 46.380632], [17.630066, 45.951769], [18.456062, 45.759481], [18.829825, 45.908872], [19.072769, 45.521511], [19.390476, 45.236516], [19.005485, 44.860234], [18.553214, 45.08159], [17.861783, 45.06774], [17.002146, 45.233777], [16.534939, 45.211608], [16.318157, 45.004127], [15.959367, 45.233777], [15.750026, 44.818712], [16.23966, 44.351143], [16.456443, 44.04124], [16.916156, 43.667722], [17.297373, 43.446341], [17.674922, 43.028563], [18.56, 42.65], [18.450017, 42.479992], [18.450016, 42.479991], [17.50997, 42.849995], [16.930006, 43.209998], [16.015385, 43.507215], [15.174454, 44.243191], [15.37625, 44.317915], [14.920309, 44.738484], [14.901602, 45.07606], [14.258748, 45.233777], [13.952255, 44.802124], [13.656976, 45.136935], [13.679403, 45.484149], [13.71506, 45.500324], [14.411968, 45.466166], [14.595109, 45.634941], [14.935244, 45.471695], [15.327675, 45.452316], [15.323954, 45.731783], [15.67153, 45.834154], [15.768733, 46.238108], [16.564808, 46.503751]]]}}, {"type": "Feature", "properties": {"NAME": "Roman Empire", "NAME_EN": "Roman Empire", "NAME_RU": "Римская империя"}, "geometry": {"type": "Polygon", "coordinates": [[[-9.034818, 41.880571], [-8.671946, 42.134689], [-8.263857, 42.280469], [-8.013175, 41.790886], [-7.422513, 41.792075], [-7.251309, 41.918346], [-6.668606, 41.883387], [-6.389088, 41.381815], [-6.851127, 41.111083], [-6.86402, 40.330872], [-7.026413, 40.184524], [-7.066592, 39.711892], [-7.498632, 39.629571], [-7.098037, 39.030073], [-7.374092, 38.373059], [-7.029281, 38.075764], [-7.166508, 37.803894], [-7.537105, 37.428904], [-7.453726, 37.097788], [-7.855613, 36.838269], [-8.382816, 36.97888], [-8.898857, 36.868809], [-8.746101, 37.651346], [-8.839998, 38.266243], [-9.287464, 38.358486], [-9.526571, 38.737429], [-9.446989, 39.392066], [-9.048305, 39.755093], [-8.977353, 40.159306], [-8.768684, 40.760639], [-8.790853, 41.184334], [-8.990789, 41.543459], [-9.034818, 41.880571]]]}}, {"type": "Feature", "properties": {"NAME": "Roman Empire", "NAME_EN": "Roman Empire", "NAME_RU": "Римская империя"}, "geometry": {"type": "Polygon", "coordinates": [[[-7.453726, 37.097788], [-7.537105, 37.428904], [-7.166508, 37.803894], [-7.029281, 38.075764], [-7.374092, 38.373059], [-7.098037, 39.030073], [-7.498632, 39.629571], [-7.066592, 39.711892], [-7.026413, 40.184524], [-6.86402, 40.330872], [-6.851127, 41.111083], [-6.389088, 41.381815], [-6.668606, 41.883387], [-7.251309, 41.918346], [-7.422513, 41.792075], [-8.013175, 41.790886], [-8.263857, 42.280469], [-8.671946, 42.134689], [-9.034818, 41.880571], [-8.984433, 42.592775], [-9.392884, 43.026625], [-7.97819, 43.748338], [-6.754492, 43.567909], [-5.411886, 43.57424], [-4.347843, 43.403449], [-3.517532, 43.455901], [-1.901351, 43.422802], [-1.502771, 43.034014], [0.338047, 42.579546], [0.701591, 42.795734], [1.826793, 42.343385], [2.985999, 42.473015], [3.039484, 41.89212], [2.091842, 41.226089], [0.810525, 41.014732], [0.721331, 40.678318], [0.106692, 40.123934], [-0.278711, 39.309978], [0.111291, 38.738514], [-0.467124, 38.292366], [-0.683389, 37.642354], [-1.438382, 37.443064], [-2.146453, 36.674144], [-3.415781, 36.6589], [-4.368901, 36.677839], [-4.995219, 36.324708], [-5.37716, 35.94685], [-5.866432, 36.029817], [-6.236694, 36.367677], [-6.520191, 36.942913], [-7.453726, 37.097788]]]}}, {"type": "Feature", "properties": {"NAME": "Roman Empire", "NAME_EN": "Roman Empire", "NAME_RU": "Римская империя"}, "geometry": {"type": "MultiPolygon", "coordinates": [[[[10.442701, 46.893546], [11.048556, 46.751359], [11.164828, 46.941579], [12.153088, 47.115393], [12.376485, 46.767559], [13.806475, 46.509306], [13.69811, 46.016778], [13.93763, 45.591016], [13.141606, 45.736692], [12.328581, 45.381778], [12.383875, 44.885374], [12.261453, 44.600482], [12.589237, 44.091366], [13.526906, 43.587727], [14.029821, 42.761008], [15.14257, 41.95514], [15.926191, 41.961315], [16.169897, 41.740295], [15.889346, 41.541082], [16.785002, 41.179606], [17.519169, 40.877143], [18.376687, 40.355625], [18.480247, 40.168866], [18.293385, 39.810774], [17.73838, 40.277671], [16.869596, 40.442235], [16.448743, 39.795401], [17.17149, 39.4247], [17.052841, 38.902871], [16.635088, 38.843572], [16.100961, 37.985899], [15.684087, 37.908849], [15.687963, 38.214593], [15.891981, 38.750942], [16.109332, 38.964547], [15.718814, 39.544072], [15.413613, 40.048357], [14.998496, 40.172949], [14.703268, 40.60455], [14.060672, 40.786348], [13.627985, 41.188287], [12.888082, 41.25309], [12.106683, 41.704535], [11.191906, 42.355425], [10.511948, 42.931463], [10.200029, 43.920007], [9.702488, 44.036279], [8.888946, 44.366336], [8.428561, 44.231228], [7.850767, 43.767148], [7.435185, 43.693845], [7.549596, 44.127901], [7.007562, 44.254767], [6.749955, 45.028518], [7.096652, 45.333099], [6.802355, 45.70858], [6.843593, 45.991147], [7.273851, 45.776948], [7.755992, 45.82449], [8.31663, 46.163642], [8.489952, 46.005151], [8.966306, 46.036932], [9.182882, 46.440215], [9.922837, 46.314899], [10.363378, 46.483571], [10.442701, 46.893546]]], [[[14.761249, 38.143874], [15.520376, 38.231155], [15.160243, 37.444046], [15.309898, 37.134219], [15.099988, 36.619987], [14.335229, 36.996631], [13.826733, 37.104531], [12.431004, 37.61295], [12.570944, 38.126381], [13.741156, 38.034966], [14.761249, 38.143874]]], [[[8.709991, 40.899984], [9.210012, 41.209991], [9.809975, 40.500009], [9.669519, 39.177376], [9.214818, 39.240473], [8.806936, 38.906618], [8.428302, 39.171847], [8.388253, 40.378311], [8.159998, 40.950007], [8.709991, 40.899984]]]]}}, {"type": "Feature", "properties": {"NAME": "Roman Empire", "NAME_EN": "Roman Empire", "NAME_RU": "Римская империя"}, "geometry": {"type": "Polygon", "coordinates": [[[13.806475, 46.509306], [14.632472, 46.431817], [15.137092, 46.658703], [16.011664, 46.683611], [16.202298, 46.852386], [16.370505, 46.841327], [16.564808, 46.503751], [15.768733, 46.238108], [15.67153, 45.834154], [15.323954, 45.731783], [15.327675, 45.452316], [14.935244, 45.471695], [14.595109, 45.634941], [14.411968, 45.466166], [13.71506, 45.500324], [13.93763, 45.591016], [13.69811, 46.016778], [13.806475, 46.509306]]]}}, {"type": "Feature", "properties": {"NAME": "Cyprus", "NAME_EN": "Cyprus", "NAME_RU": "Кипр"}, "geometry": {"type": "Polygon", "coordinates": [[[32.73178, 35.140026], [32.919572, 35.087833], [33.190977, 35.173125], [33.383833, 35.162712], [33.455922, 35.101424], [33.475817, 35.000345], [33.525685, 35.038688], [33.675392, 35.017863], [33.86644, 35.093595], [33.973617, 35.058506], [34.004881, 34.978098], [32.979827, 34.571869], [32.490296, 34.701655], [32.256667, 35.103232], [32.73178, 35.140026]]]}}, {"type": "Feature", "properties": {"NAME": "Mauretania", "NAME_EN": "Mauretania", "NAME_RU": "Мавритания"}, "geometry": {"type": "Polygon", "coordinates": [[[-2.169914, 35.168396], [-1.792986, 34.527919], [-1.733455, 33.919713], [-1.388049, 32.864015], [-1.124551, 32.651522], [-1.307899, 32.262889], [-2.616605, 32.094346], [-3.06898, 31.724498], [-3.647498, 31.637294], [-3.690441, 30.896952], [-4.859646, 30.501188], [-5.242129, 30.000443], [-6.060632, 29.7317], [-7.059228, 29.579228], [-8.674116, 28.841289], [-8.66559, 27.656426], [-8.817828, 27.656426], [-8.794884, 27.120696], [-9.413037, 27.088476], [-9.735343, 26.860945], [-10.189424, 26.860945], [-10.551263, 26.990808], [-11.392555, 26.883424], [-11.71822, 26.104092], [-12.030759, 26.030866], [-12.500963, 24.770116], [-13.89111, 23.691009], [-14.221168, 22.310163], [-14.630833, 21.86094], [-14.750955, 21.5006], [-17.002962, 21.420734], [-17.020428, 21.42231], [-16.973248, 21.885745], [-16.589137, 22.158234], [-16.261922, 22.67934], [-16.326414, 23.017768], [-15.982611, 23.723358], [-15.426004, 24.359134], [-15.089332, 24.520261], [-14.824645, 25.103533], [-14.800926, 25.636265], [-14.43994, 26.254418], [-13.773805, 26.618892], [-13.139942, 27.640148], [-13.121613, 27.654148], [-12.618837, 28.038186], [-11.688919, 28.148644], [-10.900957, 28.832142], [-10.399592, 29.098586], [-9.564811, 29.933574], [-9.814718, 31.177736], [-9.434793, 32.038096], [-9.300693, 32.564679], [-8.657476, 33.240245], [-7.654178, 33.697065], [-6.912544, 34.110476], [-6.244342, 35.145865], [-5.929994, 35.759988], [-5.193863, 35.755182], [-4.591006, 35.330712], [-3.640057, 35.399855], [-2.604306, 35.179093], [-2.169914, 35.168396]]]}}, {"type": "Feature", "properties": {"NAME": "Ancient Egypt", "NAME_EN": "Ancient Egypt", "NAME_RU": "Древний Египет"}, "geometry": {"type": "Polygon", "coordinates": [[[36.86623, 22], [32.9, 22], [29.02, 22], [25, 22], [25, 25.6825], [25, 29.238655], [24.70007, 30.04419], [24.95762, 30.6616], [24.80287, 31.08929], [25.16482, 31.56915], [26.49533, 31.58568], [27.45762, 31.32126], [28.45048, 31.02577], [28.91353, 30.87005], [29.68342, 31.18686], [30.09503, 31.4734], [30.97693, 31.55586], [31.68796, 31.4296], [31.96041, 30.9336], [32.19247, 31.26034], [32.99392, 31.02407], [33.7734, 30.96746], [34.265435, 31.219357], [34.26544, 31.21936], [34.823243, 29.761081], [34.9226, 29.50133], [34.64174, 29.09942], [34.42655, 28.34399], [34.15451, 27.8233], [33.92136, 27.6487], [33.58811, 27.97136], [33.13676, 28.41765], [32.42323, 29.85108], [32.32046, 29.76043], [32.73482, 28.70523], [33.34876, 27.69989], [34.10455, 26.14227], [34.47387, 25.59856], [34.79507, 25.03375], [35.69241, 23.92671], [35.49372, 23.75237], [35.52598, 23.10244], [36.69069, 22.20485], [36.86623, 22]]]}}, {"type": "Feature", "properties": {"NAME": "Cyrenaica", "NAME_EN": "Cyrenaica", "NAME_RU": "Киренаика"}, "geometry": {"type": "Polygon", "coordinates": [[[25, 22], [25, 20.00304], [23.85, 20], [23.83766, 19.58047], [19.84926, 21.49509], [15.86085, 23.40972], [14.8513, 22.86295], [14.143871, 22.491289], [13.581425, 23.040506], [11.999506, 23.471668], [11.560669, 24.097909], [10.771364, 24.562532], [10.303847, 24.379313], [9.948261, 24.936954], [9.910693, 25.365455], [9.319411, 26.094325], [9.716286, 26.512206], [9.629056, 27.140953], [9.756128, 27.688259], [9.683885, 28.144174], [9.859998, 28.95999], [9.805634, 29.424638], [9.48214, 30.307556], [9.970017, 30.539325], [10.056575, 30.961831], [9.950225, 31.37607], [10.636901, 31.761421], [10.94479, 32.081815], [11.432253, 32.368903], [11.488787, 33.136996], [12.66331, 32.79278], [13.08326, 32.87882], [13.91868, 32.71196], [15.24563, 32.26508], [15.71394, 31.37626], [16.61162, 31.18218], [18.02109, 30.76357], [19.08641, 30.26639], [19.57404, 30.52582], [20.05335, 30.98576], [19.82033, 31.75179], [20.13397, 32.2382], [20.85452, 32.7068], [21.54298, 32.8432], [22.89576, 32.63858], [23.2368, 32.19149], [23.60913, 32.18726], [23.9275, 32.01667], [24.92114, 31.89936], [25.16482, 31.56915], [24.80287, 31.08929], [24.95762, 30.6616], [24.70007, 30.04419], [25, 29.238655], [25, 25.6825], [25, 22]]]}}, {"type": "Feature", "properties": {"NAME": "Ottoman Empire", "NAME_EN": "Ottoman Empire", "NAME_RU": "Османская империя"}, "geometry": {"type": "Polygon", "coordinates": [[[18.56, 42.65], [17.674922, 43.028563], [17.297373, 43.446341], [16.916156, 43.667722], [16.456443, 44.04124], [16.23966, 44.351143], [15.750026, 44.818712], [15.959367, 45.233777], [16.318157, 45.004127], [16.534939, 45.211608], [17.002146, 45.233777], [17.861783, 45.06774], [18.553214, 45.08159], [19.005485, 44.860234], [19.00548, 44.86023], [19.36803, 44.863], [19.11761, 44.42307], [19.59976, 44.03847], [19.454, 43.5681], [19.21852, 43.52384], [19.03165, 43.43253], [18.70648, 43.20011], [18.56, 42.65]]]}}, {"type": "Feature", "properties": {"NAME": "Ottoman Empire", "NAME_EN": "Ottoman Empire", "NAME_RU": "Османская империя"}, "geometry": {"type": "Polygon", "coordinates": [[[22.380526, 42.32026], [22.881374, 41.999297], [22.952377, 41.337994], [22.76177, 41.3048], [22.597308, 41.130487], [22.055378, 41.149866], [21.674161, 40.931275], [21.02004, 40.842727], [20.605182, 41.086226], [20.463175, 41.515089], [20.590247, 41.855404], [20.590247, 41.855409], [20.71731, 41.84711], [20.76216, 42.05186], [21.3527, 42.2068], [21.576636, 42.245224], [21.91708, 42.30364], [22.380526, 42.32026]]]}}, {"type": "Feature", "properties": {"NAME": "Ottoman Empire", "NAME_EN": "Ottoman Empire", "NAME_RU": "Османская империя"}, "geometry": {"type": "Polygon", "coordinates": [[[18.829825, 45.908872], [18.829838, 45.908878], [19.596045, 46.17173], [20.220192, 46.127469], [20.762175, 45.734573], [20.874313, 45.416375], [21.483526, 45.18117], [21.562023, 44.768947], [22.145088, 44.478422], [22.459022, 44.702517], [22.705726, 44.578003], [22.474008, 44.409228], [22.65715, 44.234923], [22.410446, 44.008063], [22.500157, 43.642814], [22.986019, 43.211161], [22.604801, 42.898519], [22.436595, 42.580321], [22.545012, 42.461362], [22.380526, 42.32026], [21.91708, 42.30364], [21.576636, 42.245224], [21.54332, 42.32025], [21.66292, 42.43922], [21.77505, 42.6827], [21.63302, 42.67717], [21.43866, 42.86255], [21.27421, 42.90959], [21.143395, 43.068685], [20.95651, 43.13094], [20.81448, 43.27205], [20.63508, 43.21671], [20.49679, 42.88469], [20.25758, 42.81275], [20.3398, 42.89852], [19.95857, 43.10604], [19.63, 43.21378], [19.48389, 43.35229], [19.21852, 43.52384], [19.454, 43.5681], [19.59976, 44.03847], [19.11761, 44.42307], [19.36803, 44.863], [19.00548, 44.86023], [19.005485, 44.860234], [19.390476, 45.236516], [19.072769, 45.521511], [18.829825, 45.908872]]]}}, {"type": "Feature", "properties": {"NAME": "Ottoman Empire", "NAME_EN": "Ottoman Empire", "NAME_RU": "Османская империя"}, "geometry": {"type": "Polygon", "coordinates": [[[20.0707, 42.58863], [19.801613, 42.500093], [19.738051, 42.688247], [19.304486, 42.195745], [19.371768, 41.877551], [19.16246, 41.95502], [18.88214, 42.28151], [18.450017, 42.479992], [18.56, 42.65], [18.70648, 43.20011], [19.03165, 43.43253], [19.21852, 43.52384], [19.48389, 43.35229], [19.63, 43.21378], [19.95857, 43.10604], [20.3398, 42.89852], [20.25758, 42.81275], [20.0707, 42.58863]]]}}]}